{
    "links": {
        "self": "http://www.neowsapp.com/rest/v1/neo/54054780?api_key=iIulBulltgU6a56xZRHN4H3l9WmuAYTsLGpBGhQ2"
    },
    "id": "54054780",
    "neo_reference_id": "54054780",
    "name": "(2020 TQ)",
    "designation": "2020 TQ",
    "nasa_jpl_url": "http://ssd.jpl.nasa.gov/sbdb.cgi?sstr=54054780",
    "absolute_magnitude_h": 26.726,
    "estimated_diameter": {
        "kilometers": {
            "estimated_diameter_min": 0.0120048013,
            "estimated_diameter_max": 0.0268435518
        },
        "meters": {
            "estimated_diameter_min": 12.004801313,
            "estimated_diameter_max": 26.8435517923
        },
        "miles": {
            "estimated_diameter_min": 0.0074594354,
            "estimated_diameter_max": 0.0166798046
        },
        "feet": {
            "estimated_diameter_min": 39.3858323398,
            "estimated_diameter_max": 88.0693984622
        }
    },
    "is_potentially_hazardous_asteroid": false,
    "close_approach_data": [
        {
            "close_approach_date": "2020-10-05",
            "close_approach_date_full": "2020-Oct-05 07:24",
            "epoch_date_close_approach": 1601882640000,
            "relative_velocity": {
                "kilometers_per_second": "8.0324578239",
                "kilometers_per_hour": "28916.848165911",
                "miles_per_hour": "17967.8049062017"
            },
            "miss_distance": {
                "astronomical": "0.0295904829",
                "lunar": "11.5106978481",
                "kilometers": "4426673.214111423",
                "miles": "2750607.1878987174"
            },
            "orbiting_body": "Earth"
        }
    ],
    "orbital_data": {
        "orbit_id": "5",
        "orbit_determination_date": "2020-10-17 08:34:51",
        "first_observation_date": "2020-10-07",
        "last_observation_date": "2020-10-16",
        "data_arc_in_days": 9,
        "observations_used": 38,
        "orbit_uncertainty": "8",
        "minimum_orbit_intersection": ".0266065",
        "jupiter_tisserand_invariant": "3.297",
        "epoch_osculation": "2459132.5",
        "eccentricity": ".5695455800021578",
        "semi_major_axis": "2.376176083257627",
        "inclination": "4.919279750136971",
        "ascending_node_longitude": "196.5516185032329",
        "orbital_period": "1337.87752261989",
        "perihelion_distance": "1.022835497731406",
        "perihelion_argument": "166.2141226271278",
        "aphelion_distance": "3.729516668783847",
        "perihelion_time": "2459120.258321819381",
        "mean_anomaly": "3.294026598483283",
        "mean_motion": ".2690829271838219",
        "equinox": "J2000",
        "orbit_class": {
            "orbit_class_type": "AMO",
            "orbit_class_description": "Near-Earth asteroid orbits similar to that of 1221 Amor",
            "orbit_class_range": "1.017 AU < q (perihelion) < 1.3 AU"
        }
    },
    "is_sentry_object": false
}